[{"OBJECT_NAME":"STARLINK-30348","OBJECT_ID":"2023-129Q","EPOCH":"2026-03-09T22:00:01.999584","MEAN_MOTION":15.2675795,"ECCENTRICITY":0.00010887,"INCLINATION":42.9998,"RA_OF_ASC_NODE":116.6895,"ARG_OF_PERICENTER":259.395,"MEAN_ANOMALY":202.79,"EPHEMERIS_TYPE":0,"CLASSIFICATION_TYPE":"U","NORAD_CAT_ID":57712,"ELEMENT_SET_NO":999,"REV_AT_EPOCH":578,"BSTAR":0.00023589555,"MEAN_MOTION_DOT":6.076e-5,"MEAN_MOTION_DDOT":0},{"OBJECT_NAME":"ICUBE-1","OBJECT_ID":"2013-066S","EPOCH":"2026-03-09T21:15:50.265216","MEAN_MOTION":15.23110621,"ECCENTRICITY":0.00159988,"INCLINATION":97.5653,"RA_OF_ASC_NODE":53.5484,"ARG_OF_PERICENTER":327.1969,"MEAN_ANOMALY":32.8272,"EPHEMERIS_TYPE":0,"CLASSIFICATION_TYPE":"U","NORAD_CAT_ID":39432,"ELEMENT_SET_NO":999,"REV_AT_EPOCH":66928,"BSTAR":0.00081477483,"MEAN_MOTION_DOT":0.00019249,"MEAN_MOTION_DDOT":0}]
